1 45736U 20038G   23096.87714363  .00042959  00000-0  71258-3 0  9992
2 45736  53.0569 246.5061 0002749 196.3965 163.6955 15.51722176156723
1 45736U 20038G   23097.19917674  .00045930  00000-0  76017-3 0  9998
2 45736  53.0571 244.9571 0002686 197.8654 162.2260 15.51754592157895
1 45736U 20038G   23097.52120390  .00044930  00000-0  74312-3 0  9991
2 45736  53.0570 243.4078 0002629 199.2250 160.8660 15.51783817156827
1 45736U 20038G   23098.48725019  .00041675  00000-0  68808-3 0  9992
2 45736  53.0569 238.7601 0002519 204.8099 155.2789 15.51866847158092
1 45736U 20038G   23098.55165139  .00042679  00000-0  70423-3 0  9992
2 45736  53.0569 238.4503 0002502 205.2874 154.8013 15.51872935156984
1 45736U 20038G   23099.51764226  .00039957  00000-0  65811-3 0  9991
2 45736  53.0569 233.8027 0002407 211.4473 148.6393 15.51954543157138
1 45736U 20038G   23099.83962782  .00043241  00000-0  71052-3 0  9998
2 45736  53.0569 232.2534 0002346 214.0110 146.0749 15.51984338158305
1 45736U 20038G   23099.90402413  .00043320  00000-0  71165-3 0  9999
2 45736  53.0569 231.9435 0002342 214.3947 145.6911 15.51990425157194
1 45736U 20038G   23100.54797438  .00048895  00000-0  79993-3 0  9995
2 45736  53.0569 228.8447 0002241 218.8175 141.2673 15.52052109157299
1 45736U 20038G   23100.80554720  .00048719  00000-0  79639-3 0  9991
2 45736  53.0568 227.6052 0002196 220.7464 139.3381 15.52076882157332
1 45736U 20038G   23101.06311582  .00045697  00000-0  74712-3 0  9996
2 45736  53.0568 226.3657 0002168 222.4359 137.6483 15.52100128158493
1 45736U 20038G   23101.51385032  .00046833  00000-0  76414-3 0  9991
2 45736  53.0565 224.1964 0002104 225.9058 134.1778 15.52145915157447
1 45736U 20038G   23101.77140774  .00043473  00000-0  70961-3 0  9999
2 45736  53.0564 222.9568 0002070 227.8610 132.2224 15.52167705157489
1 45736U 20038G   23102.35089633  .00042082  00000-0  68593-3 0  9993
2 45736  53.0560 220.1674 0002058 231.9435 128.1389 15.52222096158695
1 45736U 20038G   23102.60844060  .00044663  00000-0  72666-3 0  9997
2 45736  53.0561 218.9279 0002017 234.6123 125.4698 15.52246842157610
1 45736U 20038G   23103.31666630  .00047095  00000-0  76368-3 0  9996
2 45736  53.0560 215.5186 0001987 240.5710 119.5101 15.52316437157725
1 45736U 20038G   23103.57419543  .00047070  00000-0  76264-3 0  9991
2 45736  53.0566 214.2788 0001933 243.3222 116.7589 15.52340039158887
1 45736U 20038G   23104.47551359  .00046985  00000-0  75888-3 0  9998
2 45736  53.0562 209.9386 0001859 253.2090 106.8715 15.52428172157906
1 45736U 20038G   23105.50552565  .00052896  00000-0  84937-3 0  9996
2 45736  53.0563 204.9785 0001829 262.8662  97.2139 15.52539233158065
1 45736U 20038G   23105.89176108  .00053033  00000-0  85019-3 0  9999
2 45736  53.0567 203.1200 0001866 270.2234  89.8561 15.52583542158126
1 45736U 20038G   23106.53546166  .00053042  00000-0  84814-3 0  9998
2 45736  53.0571 200.0181 0001856 267.4674  92.6122 15.52654998158220
1 45736U 20038G   23106.53546166  .00053042  00000-0  84814-3 0  9998
2 45736  53.0571 200.0181 0001856 267.4674  92.6122 15.52654998159344
1 45736U 20038G   23106.79293426  .00053582  00000-0  85572-3 0  9995
2 45736  53.0571 198.7778 0001861 274.1694  85.9103 15.52684933158268
1 45736U 20038G   23107.56532380  .00054696  00000-0  87068-3 0  9995
2 45736  53.0575 195.0573 0001892 284.0318  76.0481 15.52766375158386
1 45736U 20038G   23107.88714071  .00055418  00000-0  88106-3 0  9996
2 45736  53.0577 193.5085 0002259 292.0239  68.0530 15.52795293158431
1 45736U 20038G   23108.40203307  .00048803  00000-0  77578-3 0  9991
2 45736  53.0567 191.0262 0001927 290.9945  69.0857 15.52854454158519
1 45736U 20038G   23108.59511331  .00049772  00000-0  79042-3 0  9994
2 45736  53.0566 190.0956 0001920 290.7762  69.3041 15.52873051159664
1 45736U 20038G   23108.85255016  .00057409  00000-0  90881-3 0  9998
2 45736  53.0566 188.8555 0001938 293.3752  66.7053 15.52899696158588
1 45736U 20038G   23109.43176711  .00046642  00000-0  73927-3 0  9996
2 45736  53.0564 186.0642 0001983 296.9309  63.1497 15.52955127158675
1 45736U 20038G   23109.75354472  .00051754  00000-0  81791-3 0  9991
2 45736  53.0566 184.5134 0001952 298.9602  61.1212 15.52990863158725
1 45736U 20038G   23109.75354472  .00051754  00000-0  81791-3 0  9991
2 45736  53.0566 184.5134 0001952 298.9602  61.1212 15.52990863159849
1 45736U 20038G   23110.39707805  .00041354  00000-0  65436-3 0  9998
2 45736  53.0566 181.4126 0002041 304.0750  56.0065 15.53055445158824
1 45736U 20038G   23110.84754114  .00037388  00000-0  59207-3 0  9994
2 45736  53.0566 179.2379 0001726 327.4152  32.6751 15.53081239158892
1 45736U 20038G   23110.84754114  .00037388  00000-0  59207-3 0  9994
2 45736  53.0566 179.2379 0001726 327.4152  32.6751 15.53081239160019
1 45736U 20038G   23111.81277127  .00039983  00000-0  63039-3 0  9997
2 45736  53.0559 174.5865 0002128 313.1710  46.9121 15.53171242159042
1 45736U 20038G   23112.52057658  .00046479  00000-0  72932-3 0  9991
2 45736  53.0550 171.1735 0002329 311.3291  48.7518 15.53235207159153
1 45736U 20038G   23112.71360639  .00001672  00000-0  33503-4 0  9996
2 45736  53.0550 170.2426 0002132 241.2060 118.8736 15.53223311159184
1 45736U 20038G   23112.71360639  .00001672  00000-0  33503-4 0  9996
2 45736  53.0550 170.2426 0002132 241.2060 118.8736 15.53223311160300
1 45736U 20038G   23113.29269868  .00037165  00000-0  58410-3 0  9991
2 45736  53.0549 167.4516 0002353 320.4028  39.6809 15.53293436159275
1 45736U 20038G   23113.29269868  .00037165  00000-0  58410-3 0  9991
2 45736  53.0549 167.4516 0002353 320.4028  39.6809 15.53293436160390
1 45736U 20038G   23113.55006609  .00040662  00000-0  63756-3 0  9997
2 45736  53.0550 166.2120 0002444 324.0017  36.0827 15.53315962159319
1 45736U 20038G   23114.12912467  .00053537  00000-0  83378-3 0  9996
2 45736  53.0556 163.4189 0002325 324.7025  35.3830 15.53381789159409
1 45736U 20038G   23114.70815179  .00090728  00000-0  13961-2 0  9995
2 45736  53.0556 160.6268 0002392 328.7783  31.3084 15.53484086160611
1 45736U 20038G   23115.41582010  .00038490  00000-0  59935-3 0  9999
2 45736  53.0553 157.2138 0002454 331.2500  28.8374 15.53532356159605
1 45736U 20038G   23116.57377955  .00033128  00000-0  51594-3 0  9993
2 45736  53.0556 151.6279 0002600 337.6195  22.4701 15.53600632159781
1 45736U 20038G   23116.70243818  .00032832  00000-0  51127-3 0  9991
2 45736  53.0557 151.0073 0002617 337.7168  22.3727 15.53609178159801
1 45736U 20038G   23117.60302691  .00038079  00000-0  58993-3 0  9993
2 45736  53.0561 146.6628 0002794 343.1369  16.9547 15.53678045159945
1 45736U 20038G   23117.73167904  .00037220  00000-0  57665-3 0  9995
2 45736  53.0561 146.0421 0002800 343.6120  16.4799 15.53687532161081
1 45736U 20038G   23118.56789745  .00034957  00000-0  54094-3 0  9997
2 45736  53.0558 142.0076 0002838 346.5741  13.5192 15.53750825160092
1 45736U 20038G   23118.76086653  .00034636  00000-0  53581-3 0  9991
2 45736  53.0555 141.0773 0002834 347.1137  12.9800 15.53764203161246
1 45736U 20038G   23119.59704434  .00037633  00000-0  57996-3 0  9991
2 45736  53.0556 137.0424 0002884 349.8792  10.2159 15.53828667160259
1 45736U 20038G   23119.59704434  .00037633  00000-0  57996-3 0  9991
2 45736  53.0556 137.0424 0002884 349.8792  10.2159 15.53828667161373
1 45736U 20038G   23120.56182034  .00035967  00000-0  55319-3 0  9991
2 45736  53.0559 132.3868 0002972 353.0594   7.0374 15.53904593160400
1 45736U 20038G   23120.62613723  .00035072  00000-0  53959-3 0  9997
2 45736  53.0560 132.0763 0003008 353.5295   6.5675 15.53908862161533
1 45736U 20038G   23121.52655293  .00032963  00000-0  50657-3 0  9993
2 45736  53.0554 127.7308 0003000 356.6784   3.4205 15.53970674160557
1 45736U 20038G   23121.59086697  .00033047  00000-0  50776-3 0  9992
2 45736  53.0554 127.4203 0003002 356.8355   3.2635 15.53975267160565
1 45736U 20038G   23122.23399667  .00040681  00000-0  62163-3 0  9993
2 45736  53.0550 124.3166 0002986 358.7570   1.3431 15.54026060161782
1 45736U 20038G   23122.55555345  .00040427  00000-0  61723-3 0  9994
2 45736  53.0548 122.7642 0002983 359.6471   0.4536 15.54052049160711
1 45736U 20038G   23123.52019150  .00037630  00000-0  57366-3 0  9991
2 45736  53.0549 118.1069 0003017   2.6962 357.4063 15.54127531161982
1 45736U 20038G   23123.58449903  .00037402  00000-0  57013-3 0  9996
2 45736  53.0550 117.7965 0003020   2.9356 357.1671 15.54132534160876
1 45736U 20038G   23124.35617281  .00038571  00000-0  58632-3 0  9994
2 45736  53.0550 114.0707 0003049   5.8933 354.2112 15.54194439160997
1 45736U 20038G   23125.19211702  .00039778  00000-0  60283-3 0  9990
2 45736  53.0550 110.0341 0003030   8.6410 351.4651 15.54263926162243
1 45736U 20038G   23125.57792524  .00038933  00000-0  58958-3 0  9996
2 45736  53.0550 108.1710 0003010   9.9650 350.1419 15.54294972161184
1 45736U 20038G   23126.22092160  .00046614  00000-0  70233-3 0  9993
2 45736  53.0552 105.0660 0003026  11.9778 348.1303 15.54352167162403
1 45736U 20038G   23126.54241032  .00053832  00000-0  80820-3 0  9995
2 45736  53.0554 103.5133 0003024  12.8896 347.2191 15.54387291161334
1 45736U 20038G   23127.50683582  .00043847  00000-0  65829-3 0  9999
2 45736  53.0559  98.8553 0003049  16.0040 344.1066 15.54476970162606
1 45736U 20038G   23127.57112891  .00043537  00000-0  65358-3 0  9999
2 45736  53.0560  98.5448 0003052  16.2193 343.8914 15.54482617161492
1 45736U 20038G   23128.59978655  .00044645  00000-0  66770-3 0  9990
2 45736  53.0560  93.5764 0003020  20.1810 339.9319 15.54574288161652
1 45736U 20038G   23129.49980990  .00047561  00000-0  70835-3 0  9992
2 45736  53.0562  89.2284 0003061  23.4030 336.7119 15.54661007161792
1 45736U 20038G   23130.52834493  .00049763  00000-0  73784-3 0  9996
2 45736  53.0565  84.2584 0002966  26.6338 333.4824 15.54763787161955
1 45736U 20038G   23131.49253356  .00047017  00000-0  69528-3 0  9997
2 45736  53.0561  79.5988 0002918  29.7042 330.4133 15.54860909162101
